NORAD_CAT_ID,OBJECT_NAME,OBJECT_TYPE,EPOCH,MEAN_MOTION,ECCENTRICITY,INCLINATION,RA_OF_ASC_NODE,ARG_OF_PERICENTER,MEAN_ANOMALY,BSTAR,MEAN_MOTION_DOT,MEAN_MOTION_DDOT,TLE_LINE0,TLE_LINE1,TLE_LINE2,SEMIMAJOR_AXIS,PERIOD,APOGEE,PERIGEE,DECAYED
51979.0,STARLINK-3656,PAYLOAD,2022-07-02 22:00:00,15.08835524,0.0001926,53.2186,320.5294,40.3131,108.19,0.0011311,0.00017757,0.0,0 STARLINK-3656,1 51979U 22025Z   22183.91667824  .00017757  00000-0  11311-2 0  9997,2 51979  53.2186 320.5294 0001926  40.3131 108.1900 15.08835524  1307,6917.894,95.438,541.091,538.427,0.0
51979.0,STARLINK-3656,PAYLOAD,2022-07-03 14:00:01,15.08871794,0.0001841,53.2186,317.5367,44.3871,127.3089,-0.0042915,-0.00068003,0.0,0 STARLINK-3656,1 51979U 22025Z   22184.58334491 -.00068003  00000-0 -42915-2 0  9998,2 51979  53.2186 317.5367 0001841  44.3871 127.3089 15.08871794  1305,6917.783,95.436,540.922,538.375,0.0
51979.0,STARLINK-3656,PAYLOAD,2022-07-03 22:00:00,15.08830546,0.0001917,53.2181,316.0407,40.6986,142.6011,-0.0025468,-0.00040583,0.0,0 STARLINK-3656,1 51979U 22025Z   22184.91667824 -.00040583  00000-0 -25468-2 0  9991,2 51979  53.2181 316.0407 0001917  40.6986 142.6011 15.08830546 19167,6917.909000000002,95.438,541.1,538.448,0.0
51979.0,STARLINK-3656,PAYLOAD,2022-07-04 14:00:01,15.08813424,0.0001937,53.2182,313.0482,45.345,161.0692,-0.0011532,-0.00018581,0.0,0 STARLINK-3656,1 51979U 22025Z   22185.58334491 -.00018581  00000-0 -11532-2 0  9996,2 51979  53.2182 313.0482 0001937  45.3450 161.0692 15.08813424  1301,6917.962,95.439,541.1669999999998,538.487,0.0
51979.0,STARLINK-3656,PAYLOAD,2022-07-04 22:00:00,15.08825131,0.0001988,53.2179,311.552,41.9779,175.9981,-0.00013458,-2.429e-05,0.0,0 STARLINK-3656,1 51979U 22025Z   22185.91667824 -.00002429  00000-0 -13458-3 0  9996,2 51979  53.2179 311.5520 0001988  41.9779 175.9981 15.08825131  1308,6917.926,95.438,541.1659999999998,538.4159999999998,0.0
51979.0,STARLINK-3656,PAYLOAD,2022-07-05 08:00:01,15.0881786,0.0001868,53.2182,309.6801,48.7115,273.7297,0.0019907,0.00031517,0.0,0 STARLINK-3656,1 51979U 22025Z   22186.33334491  .00031517  00000-0  19907-2 0  9996,2 51979  53.2182 309.6801 0001868  48.7115 273.7297 15.08817860 19371,6917.948,95.439,541.105,538.521,0.0
51979.0,STARLINK-3656,PAYLOAD,2022-07-05 14:00:01,15.08835215,0.0002026,53.2181,308.5594,45.0126,196.1126,-0.00072337,-0.00011781,0.0,0 STARLINK-3656,1 51979U 22025Z   22186.58334491 -.00011781  00000-0 -72337-3 0  9993,2 51979  53.2181 308.5594 0002026  45.0126 196.1126 15.08835215  1303,6917.895,95.438,541.1619999999998,538.3580000000002,0.0
51979.0,STARLINK-3656,PAYLOAD,2022-07-05 22:00:00,15.08846167,0.0002041,53.218,307.063,42.6185,210.0849,-0.00094306,-0.00015269,0.0,0 STARLINK-3656,1 51979U 22025Z   22186.91667824 -.00015269  00000-0 -94306-3 0  9994,2 51979  53.2180 307.0630 0002041  42.6185 210.0849 15.08846167 19464,6917.861999999999,95.437,541.138,538.315,0.0
51979.0,STARLINK-3656,PAYLOAD,2022-07-06 14:00:01,15.08848921,0.0002098,53.2183,304.0704,45.0932,230.8018,-0.00071191,-0.00011603,0.0,0 STARLINK-3656,1 51979U 22025Z   22187.58334491 -.00011603  00000-0 -71191-3 0  9994,2 51979  53.2183 304.0704 0002098  45.0932 230.8018 15.08848921  1307,6917.853,95.437,541.169,538.2669999999998,0.0
51979.0,STARLINK-3656,PAYLOAD,2022-07-06 22:00:00,15.08864353,0.0002089,53.2183,302.5738,43.22,244.2708,-0.0015117,-0.00024283,0.0,0 STARLINK-3656,1 51979U 22025Z   22187.91667824 -.00024283  00000-0 -15117-2 0  9993,2 51979  53.2183 302.5738 0002089  43.2200 244.2708 15.08864353 19610,6917.806,95.436,541.116,538.226,0.0
51979.0,STARLINK-3656,PAYLOAD,2022-07-07 12:37:42,15.08845092,0.0001995,53.2197,299.8368,46.7554,313.3604,0.00016938,2.409e-05,0.0,0 STARLINK-3656,1 51979U 22025Z   22188.52618788  .00002409  00000-0  16938-3 0  9993,2 51979  53.2197 299.8368 0001995  46.7554 313.3604 15.08845092 19709,6917.865,95.437,541.11,538.35,0.0
51979.0,STARLINK-3656,PAYLOAD,2022-07-07 22:00:00,15.08855776,0.000201,53.2183,298.0843,41.3935,280.9347,-0.0018695,-0.00029932,0.0,0 STARLINK-3656,1 51979U 22025Z   22188.91667824 -.00029932  00000-0 -18695-2 0  9994,2 51979  53.2183 298.0843 0002010  41.3935 280.9347 15.08855776  1306,6917.831999999999,95.437,541.0880000000002,538.307,0.0
51979.0,STARLINK-3656,PAYLOAD,2022-07-08 14:03:51,15.08860005,0.0002013,53.2196,295.0792,46.8565,313.2596,0.00014537,2.027e-05,0.0,0 STARLINK-3656,1 51979U 22025Z   22189.58601358  .00002027  00000-0  14537-3 0  9994,2 51979  53.2196 295.0792 0002013  46.8565 313.2596 15.08860005 19869,6917.819,95.436,541.077,538.2919999999998,0.0
51979.0,STARLINK-3656,PAYLOAD,2022-07-08 22:00:01,15.08900004,0.0001899,53.2183,293.5948,38.1503,319.1404,-0.0045382,-0.00071912,0.0,0 STARLINK-3656,1 51979U 22025Z   22189.91668981 -.00071912  00000-0 -45382-2 0  9998,2 51979  53.2183 293.5948 0001899  38.1503 319.1404 15.08900004  1305,6917.696999999999,95.434,540.876,538.248,0.0
51979.0,STARLINK-3656,PAYLOAD,2022-07-09 08:00:01,15.08851678,0.0001729,53.2188,291.7236,42.567,59.1763,-0.0036233,-0.00057512,0.0,0 STARLINK-3656,1 51979U 22025Z   22190.33334491 -.00057512  00000-0 -36233-2 0  9997,2 51979  53.2188 291.7236 0001729  42.5670  59.1763 15.08851678 19980,6917.845,95.437,540.906,538.514,0.0
51979.0,STARLINK-3656,PAYLOAD,2022-07-09 14:00:01,15.08816188,0.0001898,53.2185,290.6028,39.2618,341.1679,-0.0044563,-0.00070472,0.0,0 STARLINK-3656,1 51979U 22025Z   22190.58334491 -.00070472  00000-0 -44563-2 0  9999,2 51979  53.2185 290.6028 0001898  39.2618 341.1679 15.08816188  1300,6917.953,95.439,541.131,538.505,0.0
51979.0,STARLINK-3656,PAYLOAD,2022-07-09 20:00:01,15.08767558,0.0001883,53.2181,289.4803,37.0797,262.009,0.00033249,4.997e-05,0.0,0 STARLINK-3656,1 51979U 22025Z   22190.83334491  .00004997  00000-0  33249-3 0  9994,2 51979  53.2181 289.4803 0001883  37.0797 262.0090 15.08767558  1305,6918.102,95.442,541.27,538.664,0.0
51979.0,STARLINK-3656,PAYLOAD,2022-07-10 06:00:00,15.08780954,0.0001686999999999,53.2184,287.6088,43.9634,359.5165,0.0029219,0.00046445,0.0,0 STARLINK-3656,1 51979U 22025Z   22191.25001157  .00046445  00000-0  29219-2 0  9996,2 51979  53.2184 287.6088 0001687  43.9634 359.5165 15.08780954 20111,6918.061,95.441,541.0930000000002,538.759,0.0
51979.0,STARLINK-3656,PAYLOAD,2022-07-10 14:00:01,15.08807788,0.0001937,53.2182,286.1144,41.1819,13.8362,0.0014712,0.00023183,0.0,0 STARLINK-3656,1 51979U 22025Z   22191.58334491  .00023183  00000-0  14712-2 0  9998,2 51979  53.2182 286.1144 0001937  41.1819  13.8362 15.08807788  1303,6917.979,95.44,541.184,538.504,0.0
51979.0,STARLINK-3656,PAYLOAD,2022-07-10 22:00:00,15.08847156,0.000189,53.2179,284.6171,41.5595,25.0245,-0.0017715999999999,-0.00028378,0.0,0 STARLINK-3656,1 51979U 22025Z   22191.91667824 -.00028378  00000-0 -17716-2 0  9994,2 51979  53.2179 284.6171 0001890  41.5595  25.0245 15.08847156 20214,6917.859,95.437,541.031,538.4159999999998,0.0
51979.0,STARLINK-3656,PAYLOAD,2022-07-11 14:00:01,15.08841545,0.0001994,53.218,281.6257,41.8638,47.9146,0.00064613,0.00010011,0.0,0 STARLINK-3656,1 51979U 22025Z   22192.58334491  .00010011  00000-0  64613-3 0  9991,2 51979  53.2180 281.6257 0001994  41.8638  47.9146 15.08841545  1302,6917.876,95.437,541.12,538.361,0.0
51979.0,STARLINK-3656,PAYLOAD,2022-07-11 22:00:00,15.08866821,0.0001916,53.2177,280.1283,41.6056,59.7699,-0.0015929,-0.00025569,0.0,0 STARLINK-3656,1 51979U 22025Z   22192.91667824 -.00025569  00000-0 -15929-2 0  9998,2 51979  53.2177 280.1283 0001916  41.6056  59.7699 15.08866821  1305,6917.7980000000025,95.436,540.989,538.3380000000002,0.0
51979.0,STARLINK-3656,PAYLOAD,2022-07-12 14:00:01,15.08839648,0.0001996,53.2178,277.1368,38.5684,86.0613,0.001485,0.00023425,0.0,0 STARLINK-3656,1 51979U 22025Z   22193.58334491  .00023425  00000-0  14850-2 0  9992,2 51979  53.2178 277.1368 0001996  38.5684  86.0613 15.08839648  1302,6917.880999999999,95.438,541.127,538.366,0.0
51979.0,STARLINK-3656,PAYLOAD,2022-07-12 22:00:00,15.08890224,0.0001895,53.2177,275.6393,38.0035,98.2351,-0.0030166,-0.00048044,0.0,0 STARLINK-3656,1 51979U 22025Z   22193.91667824 -.00048044  00000-0 -30166-2 0  9992,2 51979  53.2177 275.6393 0001895  38.0035  98.2351 15.08890224 20521,6917.727,95.434,540.903,538.281,0.0
51979.0,STARLINK-3656,PAYLOAD,2022-07-13 14:00:01,15.08828598,0.0002054,53.2178,272.6478,37.1335,122.3479,-0.00041763,-6.927e-05,0.0,0 STARLINK-3656,1 51979U 22025Z   22194.58334491 -.00006927  00000-0 -41763-3 0  9997,2 51979  53.2178 272.6478 0002054  37.1335 122.3479 15.08828598  1304,6917.915,95.438,541.201,538.359,0.0
51979.0,STARLINK-3656,PAYLOAD,2022-07-13 22:00:00,15.08825482,0.0001892,53.2177,271.1504,36.1599,134.898,-0.0016645,-0.00026671,0.0,0 STARLINK-3656,1 51979U 22025Z   22194.91667824 -.00026671  00000-0 -16645-2 0  9991,2 51979  53.2177 271.1504 0001892  36.1599 134.8980 15.08825482 20672,6917.925,95.438,541.099,538.481,0.0
51979.0,STARLINK-3656,PAYLOAD,2022-07-14 14:00:01,15.08804788,0.000209,53.2178,268.1592,35.5654,158.6267,0.0022274,0.00035305,0.0,0 STARLINK-3656,1 51979U 22025Z   22195.58334491  .00035305  00000-0  22274-2 0  9993,2 51979  53.2178 268.1592 0002090  35.5654 158.6267 15.08804788 20771,6917.988,95.44,541.299,538.4069999999998,0.0
51979.0,STARLINK-3656,PAYLOAD,2022-07-14 22:00:00,15.08836405,0.0001939,53.2176,266.6616,37.0181,168.7395,-0.00098219,-0.00015884,0.0,0 STARLINK-3656,1 51979U 22025Z   22195.91667824 -.00015884  00000-0 -98219-3 0  9994,2 51979  53.2176 266.6616 0001939  37.0181 168.7395 15.08836405  1305,6917.891,95.438,541.0980000000002,538.415,0.0
51979.0,STARLINK-3656,PAYLOAD,2022-07-15 14:00:01,15.08824751,0.0002137,53.2176,263.6703,35.9784,192.9657,0.0025766,0.00040941,0.0,0 STARLINK-3656,1 51979U 22025Z   22196.58334491  .00040941  00000-0  25766-2 0  9995,2 51979  53.2176 263.6703 0002137  35.9784 192.9657 15.08824751 20926,6917.927,95.439,541.27,538.314,0.0
